KUIPER-00112            
1 65150U 25171U   25307.83336806 -.00010365  00000+0 -35402-3 0  9990
2 65150  51.8827 358.2500 0007414  92.8437  32.4371 15.28670325  5893
KUIPER-00114            
1 65151U 25171V   25306.49977713 -.00005640  00000+0 -71109-3 0  9994
2 65151  51.9016  18.0411 0005685  54.8135 305.3359 14.79927904 13809
KUIPER-00115            
1 65152U 25171W   25307.83336806 -.00043699  00000+0 -48024-2 0  9991
2 65152  51.9268   4.7767 0011676  75.5895  68.7007 14.87230933  5646
KUIPER-00116            
1 65153U 25171X   25307.83336806 -.00031640  00000+0 -41493-2 0  9998
2 65153  51.9001   9.5168 0010201  39.1092 115.9616 14.79804929  3954
KUIPER-00118            
1 65154U 25171Y   25306.46605595  .00003231  00000+0  45263-3 0  9994
2 65154  51.9010  18.1648 0001892  80.3392 279.7784 14.79938734 13803
KUIPER-00119            
1 65155U 25171Z   25307.83336806 -.00038116  00000+0 -26585-2 0  9990
2 65155  51.8906   1.3063 0007607  47.9812 291.1173 15.04857048  5424
KUIPER-00120            
1 65762U 25217A   25307.83336806 -.01097006  00000+0 -52295-1 0  9995
2 65762  51.8740 253.8866 0011756 240.1269   7.9744 15.21630982  5727
KUIPER-00132            
1 65763U 25217B   25307.55636219  .00038946  00000+0  10931-2 0  9993
2 65763  51.8641 254.1077 0005522 234.2316 125.8157 15.36166887  6012
